BEIDOU-2 IGSO-1 (C06)   
1 36828U 10036A   25354.90794837 -.00000055  00000+0  00000+0 0  9992
2 36828  54.2882 164.5739 0051798 215.2932 144.6604  1.00282395 56317
BEIDOU-2 G4 (C04)       
1 37210U 10057A   25358.84389602 -.00000091  00000+0  00000+0 0  9998
2 37210   3.2126  69.8922 0010424 193.9179 293.6896  1.00271572 55542
BEIDOU-2 IGSO-2 (C07)   
1 37256U 10068A   25358.70967561 -.00000192  00000+0  00000+0 0  9993
2 37256  47.8640 274.0027 0048511 216.2647 326.7558  1.00282798 55040
BEIDOU-2 IGSO-3 (C08)   
1 37384U 11013A   25358.56676134 -.00000163  00000+0  00000+0 0  9991
2 37384  62.1584  41.8043 0035282 187.8377 174.9924  1.00268125 53913
BEIDOU-2 IGSO-4 (C09)   
1 37763U 11038A   25355.42114426  .00000059  00000+0  00000+0 0  9995
2 37763  54.5854 167.2693 0149155 230.0944 299.1265  1.00280083 52867
BEIDOU-2 IGSO-5 (C10)   
1 37948U 11073A   25358.73650943 -.00000139  00000+0  00000+0 0  9995
2 37948  47.9979 273.7118 0109717 222.1575 316.4289  1.00288414 51384
BEIDOU-2 G5 (C05)       
1 38091U 12008A   25358.84279647  .00000077  00000+0  00000+0 0  9994
2 38091   3.1374  70.6646 0013090 232.1865 152.9026  1.00269867 50627
BEIDOU-2 M3 (C11)       
1 38250U 12018A   25357.60335978 -.00000054  00000+0  00000+0 0  9991
2 38250  55.9110 310.7927 0024102 275.3746  84.3517  1.86230163 92675
BEIDOU-2 M4 (C12)       
1 38251U 12018B   25358.07238729 -.00000053  00000+0  00000+0 0  9999
2 38251  55.8118 310.0049 0015251 279.3729  80.4579  1.86229893 92685
BEIDOU-2 M6 (C14)       
1 38775U 12050B   25358.32020102 -.00000024  00000+0  00000+0 0  9996
2 38775  56.3880  68.6832 0011487 343.1884  16.8281  1.86230801 90056
BEIDOU-2 G6 (C02)       
1 38953U 12059A   25358.93885632 -.00000156  00000+0  00000+0 0  9993
2 38953   3.9783  75.3931 0007997 292.4419 147.7879  1.00276322 48166
BEIDOU-3S IGSO-1S (C31) 
1 40549U 15019A   25352.83031053 -.00000183  00000+0  00000+0 0  9999
2 40549  49.5404 297.6395 0036331 194.0028 349.3621  1.00292047 39264
BEIDOU-3S M2S (C58)     
1 40748U 15037A   25358.81440858 -.00000053  00000+0  00000+0 0  9997
2 40748  55.0280 308.0499 0011811 271.2412  88.6304  1.86229543 70870
BEIDOU-3S M1S (C57)     
1 40749U 15037B   25357.96919728 -.00000053  00000+0  00000+0 0  9990
2 40749  55.0251 308.0679 0003693   2.4172 357.5894  1.86253915 70866
BEIDOU-3S IGSO-2S (C56) 
1 40938U 15053A   25358.70724894 -.00000114  00000+0  00000+0 0  9997
2 40938  49.4921 260.8653 0060658 188.5708 354.4321  1.00267681 37606
BEIDOU-2 IGSO-6 (C13)   
1 41434U 16021A   25358.58893155 -.00000133  00000+0  00000+0 0  9999
2 41434  59.9811  39.7798 0060832 230.4760 128.7548  1.00290884 35729
BEIDOU-2 G7 (C03)       
1 41586U 16037A   25358.85302321 -.00000332  00000+0  00000+0 0  9995
2 41586   1.7846  67.8918 0005195   0.9994  82.2500  1.00268909  5144
BEIDOU-3 M1 (C19)       
1 43001U 17069A   25358.08567519 -.00000024  00000+0  00000+0 0  9990
2 43001  56.5357  68.8595 0009900 302.4649  57.4938  1.86231054 55341
BEIDOU-3 M2 (C20)       
1 43002U 17069B   25356.41318244 -.00000028  00000+0  00000+0 0  9999
2 43002  56.5339  68.9503 0006729 327.7398  32.2697  1.86231087 55304
BEIDOU-3 M7 (C27)       
1 43107U 18003A   25357.22995994 -.00000055  00000+0  00000+0 0  9997
2 43107  54.4874 308.4506 0002961  66.5422 293.4915  1.86232625 54072
BEIDOU-3 M8 (C28)       
1 43108U 18003B   25358.24885631 -.00000054  00000+0  00000+0 0  9996
2 43108  54.4794 308.3980 0004589 279.3969  80.5568  1.86231107 54104
BEIDOU-3 M4 (C22)       
1 43207U 18018A   25358.69087712 -.00000024  00000+0  00000+0 0  9992
2 43207  56.4953  68.9094 0004181   3.1896 356.8673  1.86231226 53497
BEIDOU-3 M3 (C21)       
1 43208U 18018B   25358.22042564 -.00000024  00000+0  00000+0 0  9998
2 43208  56.4941  68.9291 0007110 313.8135  46.1820  1.86231452 53489
BEIDOU-3 M9 (C29)       
1 43245U 18029A   25358.43671456 -.00000052  00000+0  00000+0 0  9993
2 43245  54.3551 306.0608 0001558 289.4338  70.5575  1.86228333 52644
BEIDOU-3 M10 (C30)      
1 43246U 18029B   25357.29799679 -.00000053  00000+0  00000+0 0  9996
2 43246  54.3535 306.1270 0004303   3.3658 356.6419  1.86229257 52609
BEIDOU-2 IGSO-7 (C16)   
1 43539U 18057A   25357.87768133 -.00000061  00000+0  00000+0 0  9996
2 43539  55.1784 164.5741 0093058 235.1099 119.1175  1.00254881 27360
BEIDOU-3 M5 (C23)       
1 43581U 18062A   25358.05953683  .00000101  00000+0  00000+0 0  9990
2 43581  54.0900 188.2582 0001922   1.0455 358.9913  1.86228769 50376
BEIDOU-3 M6 (C24)       
1 43582U 18062B   25357.92255485  .00000100  00000+0  00000+0 0  9990
2 43582  54.0895 188.2520 0007870  49.2706 310.8346  1.86229712 50379
BEIDOU-3 M12 (C26)      
1 43602U 18067A   25356.78658688  .00000095  00000+0  00000+0 0  9996
2 43602  54.1835 187.0221 0009247  41.5990 318.5103  1.86227882 49833
BEIDOU-3 M11 (C25)      
1 43603U 18067B   25357.99503615  .00000101  00000+0  00000+0 0  9998
2 43603  54.1809 186.9452 0005629  37.7872 322.2863  1.86227360 49886
BEIDOU-3 M13 (C32)      
1 43622U 18072A   25356.34064135 -.00000029  00000+0  00000+0 0  9992
2 43622  56.4667  68.5024 0006411 297.4685  62.5173  1.86231166 49361
BEIDOU-3 M14 (C33)      
1 43623U 18072B   25357.28002154 -.00000026  00000+0  00000+0 0  9997
2 43623  56.4696  68.4654 0003593 327.0772  32.9541  1.86231163 49375
BEIDOU-3 M16 (C35)      
1 43647U 18078A   25358.51159854 -.00000052  00000+0  00000+0 0  9995
2 43647  54.2510 306.1099 0007464  20.5002 339.5379  1.86232278 48900
BEIDOU-3 M15 (C34)      
1 43648U 18078B   25358.10386942 -.00000052  00000+0  00000+0 0  9991
2 43648  54.2473 306.1250 0004049  19.7670 340.2560  1.86232361 48910
BEIDOU-3 G1 (C59)       
1 43683U 18085A   25358.85891660 -.00000258  00000+0  00000+0 0  9996
2 43683   2.6363 102.6084 0001438  44.3064  35.8784  1.00266631 26316
BEIDOU-3 M17 (C36)      
1 43706U 18093A   25356.46062089  .00000094  00000+0  00000+0 0  9998
2 43706  54.1730 188.2918 0006042 307.4050 284.4943  1.86228432 48248
BEIDOU-3 M18 (C37)      
1 43707U 18093B   25357.05024582  .00000096  00000+0  00000+0 0  9993
2 43707  54.1741 188.2636 0006147 354.1254   5.9078  1.86226616 48257
BEIDOU-2 G8 (C01)       
1 44231U 19027A   25358.85978326 -.00000226  00000+0  00000+0 0  9993
2 44231   1.6907  74.7361 0008294 259.0299 213.8933  1.00274605 24332
BEIDOU-3 IGSO-2 (C39)   
1 44337U 19035A   25358.85475656 -.00000070  00000+0  00000+0 0  9994
2 44337  55.2292 160.3949 0037852 202.5754 157.6854  1.00267539 23925
BEIDOU-3 M24 (C46)      
1 44542U 19061A   25358.19506082  .00000102  00000+0  00000+0 0  9991
2 44542  54.4008 188.6295 0009588  26.2162 333.8692  1.86229374 42530
BEIDOU-3 M23 (C45)      
1 44543U 19061B   25358.04848868  .00000101  00000+0  00000+0 0  9996
2 44543  54.3997 188.6027 0006047  26.1168 148.3907  1.86227524 42535
BEIDOU-3 M22 (C44)      
1 44793U 19078A   25356.96114954 -.00000054  00000+0  00000+0 0  9990
2 44793  54.0989 306.0279 0006094  24.0205 336.0117  1.86232206 41368
BEIDOU-3 M21 (C43)      
1 44794U 19078B   25358.17298389 -.00000052  00000+0  00000+0 0  9999
2 44794  54.0711 305.9500 0004286  12.8306 347.1880  1.86227905 41398
BEIDOU-3 M19 (C41)      
1 44864U 19090A   25357.34308502 -.00000025  00000+0  00000+0 0  9998
2 44864  56.4016  68.6102 0018350 285.1686  74.3057  1.86231621 40950
BEIDOU-3 M20 (C42)      
1 44865U 19090B   25358.28461043 -.00000024  00000+0  00000+0 0  9992
2 44865  56.4040  68.6133 0015524 297.3471  62.9851  1.86231600 40962
BEIDOU-3 G2 (C60)       
1 45344U 20017A   25358.84704318 -.00000120  00000+0  00000+0 0  9990
2 45344   2.5183  44.1145 0002113 237.1070 197.3749  1.00272356 21512
BEIDOU-3 G3 (C61)       
1 45807U 20040A   25358.28242444 -.00000333  00000+0  00000+0 0  9991
2 45807   2.0173  66.6796 0006583 309.1585 289.4373  1.00268173 20312
BEIDOU-3 G4 (C62)       
1 56564U 23066A   25358.79148949 -.00000090  00000+0  00000+0 0  9995
2 56564   0.7900 302.9839 0002581 228.7781   6.7907  1.00270930  9649
BEIDOU-3 M28 (C50)      
1 58654U 23207A   25357.17722600 -.00000028  00000+0  00000+0 0  9998
2 58654  55.5933  68.2480 0002833 274.4860  85.5342  1.86229739 13564
BEIDOU-3 M26 (C48)      
1 58655U 23207B   25356.97478208 -.00000028  00000+0  00000+0 0  9998
2 58655  55.5951  68.2410 0004187 260.4893  99.5155  1.86231234 13541
BEIDOU-3 M25 (C47)      
1 61186U 24168B   25358.04450229 -.00000053  00000+0  00000+0 0  9999
2 61186  54.6321 308.3293 0005428 299.9145 174.1551  1.86230087  8525
BEIDOU-3 M27 (C49)      
1 61187U 24168C   25358.29436025 -.00000053  00000+0  00000+0 0  9995
2 61187  54.6273 308.3043 0002547 341.1399  75.3953  1.86230222  6005
